PROBA-1                 
1 26958U 01049B   26065.30466919  .00002490  00000+0  16490-3 0  9998
2 26958  97.9620  70.2653 0056906 110.1571 250.5789 15.06998448328126
CUTE-1 (CO-55)          
1 27844U 03031E   26064.98098691  .00000414  00000+0  19809-3 0  9998
2 27844  98.6779  74.8258 0010558 122.1079 238.1126 14.24262327176985
CUBESAT XI-IV (CO-57)   
1 27848U 03031J   26064.98829135  .00000334  00000+0  16598-3 0  9990
2 27848  98.6809  74.6285 0010225 138.5816 221.6139 14.23557958176697
APRIZESAT 4             
1 35684U 09041D   26065.14798102  .00001000  00000+0  12625-3 0  9990
2 35684  98.1492 138.3975 0042211 296.5139  63.1748 14.83699785896082
APRIZESAT 3             
1 35686U 09041F   26065.23293065  .00002855  00000+0  25114-3 0  9996
2 35686  98.1896 213.6384 0063166  48.0396 312.6181 14.95885926900985
PROBA-2                 
1 36037U 09059B   26065.07485866  .00000370  00000+0  96874-4 0  9992
2 36037  98.2427 249.8585 0012185 236.2647 123.7389 14.54788001866530
APRIZESAT 5             
1 37792U 11044E   26065.24203948  .00002075  00000+0  27024-3 0  9990
2 37792  98.2402 355.4187 0051951 335.7172  24.1592 14.80844574783553
APRIZESAT 6             
1 37793U 11044F   26065.30795796  .00001365  00000+0  19966-3 0  9992
2 37793  98.2421 333.6908 0044408  56.0539  58.9350 14.76743788781963
PROBA-V                 
1 39159U 13021A   26065.22146194  .00000122  00000+0  71609-4 0  9993
2 39159  98.3502  48.9592 0005364  77.8112 282.3668 14.23572653666468
APRIZESAT 7             
1 39416U 13066A   26065.10193220  .00001763  00000+0  18079-3 0  9990
2 39416  97.7598  19.8961 0035553 190.6216 169.4256 14.91268723665867
APRIZESAT 8             
1 39425U 13066K   26065.29098459  .00001909  00000+0  21347-3 0  9992
2 39425  97.8115  14.2797 0044594 264.5228  95.0901 14.87412254664379
BUGSAT-1 (TITA)         
1 40014U 14033E   26065.26874995  .00004945  00000+0  27032-3 0  9997
2 40014  98.0435 151.8985 0029118 169.9519 190.2300 15.14439626640251
SAUDISAT 4              
1 40016U 14033G   26065.18101349  .00001161  00000+0  15988-3 0  9990
2 40016  97.7404 214.9789 0045944  49.9073 310.6152 14.79382138630847
APRIZESAT 9             
1 40018U 14033J   26065.30642791  .00001493  00000+0  22655-3 0  9994
2 40018  97.8875 201.1283 0066606 169.9949 190.2603 14.74064750628406
APRIZESAT 10            
1 40019U 14033K   26065.33335598  .00001155  00000+0  18906-3 0  9991
2 40019  97.9473 194.6942 0077842 241.7712 117.5620 14.70744736627136
TECHDEMOSAT-1 (TDS-1)   
1 40076U 14037H   26065.21522595  .00011794  00000+0  70052-3 0  9990
2 40076  98.3777  47.3974 0004576 253.2411 106.8315 15.11480391632664
