[{"OBJECT_NAME":"PROBA-1","OBJECT_ID":"2001-049B","EPOCH":"2026-03-06T07:18:43.418016","MEAN_MOTION":15.06998448,"ECCENTRICITY":0.0056906,"INCLINATION":97.962,"RA_OF_ASC_NODE":70.2653,"ARG_OF_PERICENTER":110.1571,"MEAN_ANOMALY":250.5789,"EPHEMERIS_TYPE":0,"CLASSIFICATION_TYPE":"U","NORAD_CAT_ID":26958,"ELEMENT_SET_NO":999,"REV_AT_EPOCH":32812,"BSTAR":0.0001649005,"MEAN_MOTION_DOT":2.49e-5,"MEAN_MOTION_DDOT":0},{"OBJECT_NAME":"CUTE-1 (CO-55)","OBJECT_ID":"2003-031E","EPOCH":"2026-03-05T23:32:37.269024","MEAN_MOTION":14.24262327,"ECCENTRICITY":0.00105588,"INCLINATION":98.6779,"RA_OF_ASC_NODE":74.8258,"ARG_OF_PERICENTER":122.1079,"MEAN_ANOMALY":238.1126,"EPHEMERIS_TYPE":0,"CLASSIFICATION_TYPE":"U","NORAD_CAT_ID":27844,"ELEMENT_SET_NO":999,"REV_AT_EPOCH":17698,"BSTAR":0.00019809167,"MEAN_MOTION_DOT":4.14e-6,"MEAN_MOTION_DDOT":0},{"OBJECT_NAME":"CUBESAT XI-IV (CO-57)","OBJECT_ID":"2003-031J","EPOCH":"2026-03-05T23:43:08.372640","MEAN_MOTION":14.23557958,"ECCENTRICITY":0.00102256,"INCLINATION":98.6809,"RA_OF_ASC_NODE":74.6285,"ARG_OF_PERICENTER":138.5816,"MEAN_ANOMALY":221.6139,"EPHEMERIS_TYPE":0,"CLASSIFICATION_TYPE":"U","NORAD_CAT_ID":27848,"ELEMENT_SET_NO":999,"REV_AT_EPOCH":17669,"BSTAR":0.00016598253,"MEAN_MOTION_DOT":3.34e-6,"MEAN_MOTION_DDOT":0},{"OBJECT_NAME":"APRIZESAT 4","OBJECT_ID":"2009-041D","EPOCH":"2026-03-06T03:33:05.560128","MEAN_MOTION":14.83699785,"ECCENTRICITY":0.00422118,"INCLINATION":98.1492,"RA_OF_ASC_NODE":138.3975,"ARG_OF_PERICENTER":296.5139,"MEAN_ANOMALY":63.1748,"EPHEMERIS_TYPE":0,"CLASSIFICATION_TYPE":"U","NORAD_CAT_ID":35684,"ELEMENT_SET_NO":999,"REV_AT_EPOCH":89608,"BSTAR":0.00012624797,"MEAN_MOTION_DOT":1.0e-5,"MEAN_MOTION_DDOT":0},{"OBJECT_NAME":"APRIZESAT 3","OBJECT_ID":"2009-041F","EPOCH":"2026-03-06T05:35:25.208160","MEAN_MOTION":14.95885926,"ECCENTRICITY":0.00631661,"INCLINATION":98.1896,"RA_OF_ASC_NODE":213.6384,"ARG_OF_PERICENTER":48.0396,"MEAN_ANOMALY":312.6181,"EPHEMERIS_TYPE":0,"CLASSIFICATION_TYPE":"U","NORAD_CAT_ID":35686,"ELEMENT_SET_NO":999,"REV_AT_EPOCH":90098,"BSTAR":0.00025113987,"MEAN_MOTION_DOT":2.855e-5,"MEAN_MOTION_DDOT":0},{"OBJECT_NAME":"PROBA-2","OBJECT_ID":"2009-059B","EPOCH":"2026-03-06T01:47:47.788224","MEAN_MOTION":14.54788001,"ECCENTRICITY":0.00121855,"INCLINATION":98.2427,"RA_OF_ASC_NODE":249.8585,"ARG_OF_PERICENTER":236.2647,"MEAN_ANOMALY":123.7389,"EPHEMERIS_TYPE":0,"CLASSIFICATION_TYPE":"U","NORAD_CAT_ID":36037,"ELEMENT_SET_NO":999,"REV_AT_EPOCH":86653,"BSTAR":9.6873813e-5,"MEAN_MOTION_DOT":3.7e-6,"MEAN_MOTION_DDOT":0},{"OBJECT_NAME":"APRIZESAT 5","OBJECT_ID":"2011-044E","EPOCH":"2026-03-06T05:48:32.211072","MEAN_MOTION":14.80844574,"ECCENTRICITY":0.00519516,"INCLINATION":98.2402,"RA_OF_ASC_NODE":355.4187,"ARG_OF_PERICENTER":335.7172,"MEAN_ANOMALY":24.1592,"EPHEMERIS_TYPE":0,"CLASSIFICATION_TYPE":"U","NORAD_CAT_ID":37792,"ELEMENT_SET_NO":999,"REV_AT_EPOCH":78355,"BSTAR":0.00027023812,"MEAN_MOTION_DOT":2.075e-5,"MEAN_MOTION_DDOT":0},{"OBJECT_NAME":"APRIZESAT 6","OBJECT_ID":"2011-044F","EPOCH":"2026-03-06T07:23:27.567744","MEAN_MOTION":14.76743788,"ECCENTRICITY":0.00444085,"INCLINATION":98.2421,"RA_OF_ASC_NODE":333.6908,"ARG_OF_PERICENTER":56.0539,"MEAN_ANOMALY":58.935,"EPHEMERIS_TYPE":0,"CLASSIFICATION_TYPE":"U","NORAD_CAT_ID":37793,"ELEMENT_SET_NO":999,"REV_AT_EPOCH":78196,"BSTAR":0.00019966181,"MEAN_MOTION_DOT":1.365e-5,"MEAN_MOTION_DDOT":0},{"OBJECT_NAME":"PROBA-V","OBJECT_ID":"2013-021A","EPOCH":"2026-03-06T05:18:54.311616","MEAN_MOTION":14.23572653,"ECCENTRICITY":0.00053646,"INCLINATION":98.3502,"RA_OF_ASC_NODE":48.9592,"ARG_OF_PERICENTER":77.8112,"MEAN_ANOMALY":282.3668,"EPHEMERIS_TYPE":0,"CLASSIFICATION_TYPE":"U","NORAD_CAT_ID":39159,"ELEMENT_SET_NO":999,"REV_AT_EPOCH":66646,"BSTAR":7.1608907e-5,"MEAN_MOTION_DOT":1.22e-6,"MEAN_MOTION_DDOT":0},{"OBJECT_NAME":"APRIZESAT 7","OBJECT_ID":"2013-066A","EPOCH":"2026-03-06T02:26:46.942080","MEAN_MOTION":14.91268723,"ECCENTRICITY":0.00355536,"INCLINATION":97.7598,"RA_OF_ASC_NODE":19.8961,"ARG_OF_PERICENTER":190.6216,"MEAN_ANOMALY":169.4256,"EPHEMERIS_TYPE":0,"CLASSIFICATION_TYPE":"U","NORAD_CAT_ID":39416,"ELEMENT_SET_NO":999,"REV_AT_EPOCH":66586,"BSTAR":0.00018079043,"MEAN_MOTION_DOT":1.763e-5,"MEAN_MOTION_DDOT":0},{"OBJECT_NAME":"APRIZESAT 8","OBJECT_ID":"2013-066K","EPOCH":"2026-03-06T06:59:01.068576","MEAN_MOTION":14.87412254,"ECCENTRICITY":0.0044594,"INCLINATION":97.8115,"RA_OF_ASC_NODE":14.2797,"ARG_OF_PERICENTER":264.5228,"MEAN_ANOMALY":95.0901,"EPHEMERIS_TYPE":0,"CLASSIFICATION_TYPE":"U","NORAD_CAT_ID":39425,"ELEMENT_SET_NO":999,"REV_AT_EPOCH":66437,"BSTAR":0.00021347331,"MEAN_MOTION_DOT":1.909e-5,"MEAN_MOTION_DDOT":0},{"OBJECT_NAME":"BUGSAT-1 (TITA)","OBJECT_ID":"2014-033E","EPOCH":"2026-03-06T06:26:59.995680","MEAN_MOTION":15.14439626,"ECCENTRICITY":0.0029118,"INCLINATION":98.0435,"RA_OF_ASC_NODE":151.8985,"ARG_OF_PERICENTER":169.9519,"MEAN_ANOMALY":190.23,"EPHEMERIS_TYPE":0,"CLASSIFICATION_TYPE":"U","NORAD_CAT_ID":40014,"ELEMENT_SET_NO":999,"REV_AT_EPOCH":64025,"BSTAR":0.00027031545,"MEAN_MOTION_DOT":4.945e-5,"MEAN_MOTION_DDOT":0},{"OBJECT_NAME":"SAUDISAT 4","OBJECT_ID":"2014-033G","EPOCH":"2026-03-06T04:20:39.565536","MEAN_MOTION":14.79382138,"ECCENTRICITY":0.00459449,"INCLINATION":97.7404,"RA_OF_ASC_NODE":214.9789,"ARG_OF_PERICENTER":49.9073,"MEAN_ANOMALY":310.6152,"EPHEMERIS_TYPE":0,"CLASSIFICATION_TYPE":"U","NORAD_CAT_ID":40016,"ELEMENT_SET_NO":999,"REV_AT_EPOCH":63084,"BSTAR":0.000159885,"MEAN_MOTION_DOT":1.161e-5,"MEAN_MOTION_DDOT":0},{"OBJECT_NAME":"APRIZESAT 9","OBJECT_ID":"2014-033J","EPOCH":"2026-03-06T07:21:15.371424","MEAN_MOTION":14.7406475,"ECCENTRICITY":0.00666061,"INCLINATION":97.8875,"RA_OF_ASC_NODE":201.1283,"ARG_OF_PERICENTER":169.9949,"MEAN_ANOMALY":190.2603,"EPHEMERIS_TYPE":0,"CLASSIFICATION_TYPE":"U","NORAD_CAT_ID":40018,"ELEMENT_SET_NO":999,"REV_AT_EPOCH":62840,"BSTAR":0.00022655425,"MEAN_MOTION_DOT":1.493e-5,"MEAN_MOTION_DDOT":0},{"OBJECT_NAME":"APRIZESAT 10","OBJECT_ID":"2014-033K","EPOCH":"2026-03-06T08:00:01.956672","MEAN_MOTION":14.70744736,"ECCENTRICITY":0.00778425,"INCLINATION":97.9473,"RA_OF_ASC_NODE":194.6942,"ARG_OF_PERICENTER":241.7712,"MEAN_ANOMALY":117.562,"EPHEMERIS_TYPE":0,"CLASSIFICATION_TYPE":"U","NORAD_CAT_ID":40019,"ELEMENT_SET_NO":999,"REV_AT_EPOCH":62713,"BSTAR":0.00018906036,"MEAN_MOTION_DOT":1.155e-5,"MEAN_MOTION_DDOT":0},{"OBJECT_NAME":"TECHDEMOSAT-1 (TDS-1)","OBJECT_ID":"2014-037H","EPOCH":"2026-03-06T05:09:55.522080","MEAN_MOTION":15.11480391,"ECCENTRICITY":0.00045767,"INCLINATION":98.3777,"RA_OF_ASC_NODE":47.3974,"ARG_OF_PERICENTER":253.2411,"MEAN_ANOMALY":106.8315,"EPHEMERIS_TYPE":0,"CLASSIFICATION_TYPE":"U","NORAD_CAT_ID":40076,"ELEMENT_SET_NO":999,"REV_AT_EPOCH":63266,"BSTAR":0.0007005221,"MEAN_MOTION_DOT":0.00011794,"MEAN_MOTION_DDOT":0}]
